{"signature":{"version":"1.3","source":"NASA/JPL Small-Body Database (SBDB) API"},"orbit":{"equinox":"J2000","pe_used":"DE424","sb_used":"SB424-N343","moid_jup":"3.87795","t_jup":"5.525","rms":".29146","moid":".0032228","not_valid_after":null,"n_dop_obs_used":7,"model_pars":[{"kind":"EST","units":"m^2/kg","value":"2.635943157E-6","sigma":"1.908E-7","title":"area-to-mass ratio","name":"AMRAT","desc":"solar radiation pressure area-to-mass ratio","n":2},{"kind":"EST","value":"1191.534909615045","units":"kg/m^3","sigma":".892","desc":"bulk density","n":1,"name":"RHO","title":"bulk density"}],"producer":"Davide Farnocchia","soln_date":"2021-01-07 11:18:06","epoch":"2455562.5","two_body":null,"orbit_id":"118","n_obs_used":554,"comment":"See Farnocchia et al. 2021","cov_epoch":"2455562.5","source":"JPL","last_obs":"2020-10-03","not_valid_before":null,"elements":[{"units":null,"value":".2037450762416414","name":"e","title":"eccentricity","label":"e","sigma":"6.9748E-11"},{"label":"a","sigma":"1.9673E-10","units":"au","value":"1.126391025894812","title":"semi-major axis","name":"a"},{"title":"perihelion distance","name":"q","units":"au","value":".8968944004459729","sigma":"2.3047E-10","label":"q"},{"sigma":"6.8601E-9","label":"i","name":"i","title":"inclination; angle with respect to x-y ecliptic plane","value":"6.03494377024794","units":"deg"},{"sigma":"5.5577E-8","label":"node","name":"om","title":"longitude of the ascending node","units":"deg","value":"2.06086619569642"},{"label":"peri","sigma":"6.4419E-8","value":"66.22306084084298","units":"deg","name":"w","title":"argument of perihelion"},{"sigma":"4.2749E-8","label":"M","name":"ma","title":"mean anomaly","value":"101.703952002457","units":"deg"},{"label":"tp","sigma":"2.2536E-8","units":"TDB","value":"2455439.141940872670","name":"tp","title":"time of perihelion passage"},{"value":"436.6487281120201","units":"d","title":"sidereal orbital period","name":"per","label":"period","sigma":"1.144E-7"},{"value":".8244613503320309","units":"deg/d","name":"n","title":"mean motion","label":"n","sigma":"2.16E-10"},{"label":"Q","sigma":"2.3681E-10","units":"au","value":"1.355887651343651","title":"aphelion distance","name":"ad"}],"data_arc":"7693","first_obs":"1999-09-11","n_del_obs_used":58,"condition_code":"0"},"object":{"spkid":"20101955","neo":true,"pha":true,"kind":"an","orbit_class":{"code":"APO","name":"Apollo"},"fullname":"101955 Bennu (1999 RQ36)","orbit_id":"118","prefix":null,"shortname":"101955 Bennu","des":"101955"}}
